UNKNOWN                 
1 87725U          25354.15594642  .00020197  00000+0  17189-2 0  9990
2 87725  82.8664 249.0942 0018530  32.8319 327.4052 14.97568970635034
UNKNOWN                 
1 87730U          25354.37869688  .00000110  00000+0  10047-3 0  9995
2 87730  82.9445 228.4492 0029805 345.0478  14.9793 13.74507095586389
UNKNOWN                 
1 87737U          25352.09766773  .00000025  00000+0  70202-4 0  9995
2 87737  99.3741 223.7797 0133152 175.4171 184.8230 13.72341587604596
UNKNOWN                 
1 87764U          25353.18035977  .00003106  00000+0  54403-3 0  9998
2 87764  65.6716 144.7296 0359016  73.4005 101.5516 14.34932187620044
UNKNOWN                 
1 87771U          25353.36172666  .00000092  00000+0  33725-3 0  9998
2 87771 100.7425 189.6706 0119757 347.3797  12.4327 13.19518962535960
UNKNOWN                 
1 87782U          25353.92075727  .00001564  00000+0  53196-2 0  9990
2 87782 102.3410 226.4636 0044553 235.4264 124.2625 13.00443526568921
UNKNOWN                 
1 87843U          25347.14394888  .00002857  00000+0  66071-2 0  9999
2 87843  99.6629 101.2591 0231272   3.4413 356.8231 13.16548050564213
UNKNOWN                 
1 87845U          25354.13874521  .00000573  00000+0  11342-2 0  9999
2 87845  98.8580 310.1873 0575644 236.6825 117.7894 12.88936716566160
UNKNOWN                 
1 87878U          25354.06813746  .00002546  00000+0  80538-3 0  9995
2 87878  99.1582 114.0721 0035758 243.6666 116.0847 14.40761210612351
UNKNOWN                 
1 87884U          25353.54966956 -.00000009  00000+0  17589-4 0  9996
2 87884  98.7349  97.1563 0154634  49.4439 312.0075 14.05990786619322
UNKNOWN                 
1 87991U          25353.91297559  .00002232  00000+0  44674-2 0  9994
2 87991  28.6179 229.9811 0884884  87.7318 282.4123 12.35137390523887
UNKNOWN                 
1 87998U          25337.76078370  .00001302  00000+0  73650-3 0  9998
2 87998  98.5972 343.8319 0025639 270.5850  89.2384 14.11656049547632
